{"_default": { "413": {"norad_id": "41556", "name": "ZY 3 2", "tle1": "1 41556U 16033A   26163.84898789  .00005268  00000-0  23721-3 0  9992", "tle2": "2 41556  97.3842 239.7062 0011348 307.2471  52.7729 15.21440997557322", "object_type": "PAYLOAD", "criticality_score": 9.0, "last_updated": "2026-06-13T11:16:06.819600+00:00", "maneuver_count": 0, "owner": "PRC"}}}